ONEWEB-0264             
1 48982U 21060R   23349.71262027  .00000131  00000+0  31009-3 0  9998
2 48982  87.9087  50.7949 0001747 104.1651 255.9674 13.16592690119262
ONEWEB-0266             
1 48984U 21060T   23350.11476612  .00000050  00000+0  98099-4 0  9996
2 48984  87.9080  50.6980 0001893  97.8099 262.3247 13.16595562120606
ONEWEB-0267             
1 48985U 21060U   23350.12531892 -.00000160  00000+0 -45158-3 0  9991
2 48985  87.9080  50.6965 0001537 117.5470 242.5817 13.16593554120600
ONEWEB-0268             
1 48986U 21060V   23349.71369635 -.00000291  00000+0 -79516-3 0  9999
2 48986  87.9082  50.7837 0001795 113.8259 246.3061 13.16598694119524
ONEWEB-0269             
1 48987U 21060W   23349.69467309  .00000159  00000+0  38311-3 0  9993
2 48987  87.9075  50.8108 0001765 100.9605 259.1725 13.16594949119290
ONEWEB-0270             
1 48988U 21060X   23350.16755462  .00000165  00000+0  39895-3 0  9993
2 48988  87.9080  50.7041 0002008 123.6770 236.4553 13.16596521120701
ONEWEB-0271             
1 48989U 21060Y   23349.69889856  .00000177  00000+0  42856-3 0  9999
2 48989  87.9079  50.7721 0001648 119.5848 240.5447 13.16593406119338
ONEWEB-0272             
1 48990U 21060Z   23349.72211689  .00000041  00000+0  73439-4 0  9990
2 48990  87.9082  50.7941 0001634 112.4370 247.6934 13.16593119119289
